NORAD_CAT_ID,OBJECT_NAME,OBJECT_TYPE,EPOCH,MEAN_MOTION,ECCENTRICITY,INCLINATION,RA_OF_ASC_NODE,ARG_OF_PERICENTER,MEAN_ANOMALY,BSTAR,MEAN_MOTION_DOT,MEAN_MOTION_DDOT,TLE_LINE0,TLE_LINE1,TLE_LINE2,SEMIMAJOR_AXIS,PERIOD,APOGEE,PERIGEE,DECAYED
51105.0,STARLINK-3350,PAYLOAD,2024-03-22 22:19:08,15.08835678,0.0001322,53.2166,266.7766,99.9585,260.1556,9.2114e-05,1.178e-05,0.0,0 STARLINK-3350,1 51105U 22005B   24082.92995578  .00001178  00000-0  92114-4 0  9999,2 51105  53.2166 266.7766 0001322  99.9585 260.1556 15.08835678120672,6917.894,95.438,540.673,538.844,0.0
51105.0,STARLINK-3350,PAYLOAD,2024-03-23 18:59:08,15.08843061,0.0001416,53.2175,262.9138,80.3837,279.7315,0.00011006,1.464e-05,0.0,0 STARLINK-3350,1 51105U 22005B   24083.79107546  .00001464  00000-0  11006-3 0  9993,2 51105  53.2175 262.9138 0001416  80.3837 279.7315 15.08843061120800,6917.871,95.437,540.716,538.756,0.0
51105.0,STARLINK-3350,PAYLOAD,2024-03-24 04:31:27,15.08840438,0.0001325,53.2147,261.1302,88.2381,271.8763,2.7539e-05,1.5e-06,0.0,0 STARLINK-3350,1 51105U 22005B   24084.18851589  .00000150  00000-0  27539-4 0  9990,2 51105  53.2147 261.1302 0001325  88.2381 271.8763 15.08840438121977,6917.879,95.438,540.661,538.827,0.0
51105.0,STARLINK-3350,PAYLOAD,2024-03-24 12:28:23,15.08839913,0.0001546,53.2164,259.6446,101.6331,258.4835,4.9823e-05,5.05e-06,0.0,0 STARLINK-3350,1 51105U 22005B   24084.51972100  .00000505  00000-0  49823-4 0  9994,2 51105  53.2164 259.6446 0001546 101.6331 258.4835 15.08839913120917,6917.881,95.438,540.815,538.676,0.0
51105.0,STARLINK-3350,PAYLOAD,2024-03-24 22:00:41,15.08856615,0.0001472,53.2163,257.8531,95.8155,264.3005,0.0003336,5.028e-05,0.0,0 STARLINK-3350,1 51105U 22005B   24084.91715035  .00005028  00000-0  33360-3 0  9993,2 51105  53.2163 257.8531 0001472  95.8155 264.3005 15.08856615120976,6917.83,95.437,540.713,538.676,0.0
51105.0,STARLINK-3350,PAYLOAD,2024-03-25 10:43:47,15.08844375,0.0002015,53.215,255.4783,79.3164,280.8055,0.00013509,1.863e-05,0.0,0 STARLINK-3350,1 51105U 22005B   24085.44707613  .00001863  00000-0  13509-3 0  9991,2 51105  53.2150 255.4783 0002015  79.3164 280.8055 15.08844375122167,6917.867,95.437,541.126,538.338,0.0
51105.0,STARLINK-3350,PAYLOAD,2024-03-25 18:40:42,15.08864661,0.0001427,53.2144,253.9913,75.6988,284.4163,0.00041983,6.404e-05,0.0,0 STARLINK-3350,1 51105U 22005B   24085.77826435  .00006404  00000-0  41983-3 0  9994,2 51105  53.2144 253.9913 0001427  75.6988 284.4163 15.08864661122213,6917.805,95.436,540.657,538.683,0.0
51105.0,STARLINK-3350,PAYLOAD,2024-03-26 04:13:01,15.08850877,0.0001351,53.2168,252.2063,89.1385,270.9762,1.8695e-05,1e-07,0.0,0 STARLINK-3350,1 51105U 22005B   24086.17570627  .00000010  00000-0  18695-4 0  9990,2 51105  53.2168 252.2063 0001351  89.1385 270.9762 15.08850877122279,6917.847,95.437,540.647,538.778,0.0
51105.0,STARLINK-3350,PAYLOAD,2024-03-26 10:34:34,15.08828042,0.000177,53.2158,251.0178,92.5254,267.5941,-0.00012409,-2.262e-05,0.0,0 STARLINK-3350,1 51105U 22005B   24086.44068052 -.00002262  00000-0 -12409-3 0  9993,2 51105  53.2158 251.0178 0001770  92.5254 267.5941 15.08828042122315,6917.917,95.438,541.006,538.557,0.0
51105.0,STARLINK-3350,PAYLOAD,2024-03-26 18:31:30,15.08830289,0.0001454,53.2153,249.5327,95.8232,264.2926,-0.0001466,-2.62e-05,0.0,0 STARLINK-3350,1 51105U 22005B   24086.77188069 -.00002620  00000-0 -14660-3 0  9999,2 51105  53.2153 249.5327 0001454  95.8232 264.2926 15.08830289121254,6917.91,95.438,540.781,538.769,0.0
51105.0,STARLINK-3350,PAYLOAD,2024-03-27 04:03:48,15.08838602,0.0001388,53.2154,247.7475,92.6131,267.502,-0.00012471,-2.272e-05,0.0,0 STARLINK-3350,1 51105U 22005B   24087.16931706 -.00002272  00000-0 -12471-3 0  9998,2 51105  53.2154 247.7475 0001388  92.6131 267.5020 15.08838602122426,6917.885,95.438,540.71,538.789,0.0
51105.0,STARLINK-3350,PAYLOAD,2024-03-27 10:25:21,15.08838871,0.0001655,53.2152,246.5572,92.3048,267.8134,8.7291e-05,1.101e-05,0.0,0 STARLINK-3350,1 51105U 22005B   24087.43427956  .00001101  00000-0  87291-4 0  9996,2 51105  53.2152 246.5572 0001655  92.3048 267.8134 15.08838871121358,6917.884,95.438,540.894,538.604,0.0
51105.0,STARLINK-3350,PAYLOAD,2024-03-27 16:46:53,15.08847317,0.0001422,53.2151,245.3679,94.0088,266.1067,0.00024088,3.548e-05,0.0,0 STARLINK-3350,1 51105U 22005B   24087.69923565  .00003548  00000-0  24088-3 0  9992,2 51105  53.2151 245.3679 0001422  94.0088 266.1067 15.08847317121393,6917.858,95.437,540.707,538.739,0.0
51105.0,STARLINK-3350,PAYLOAD,2024-03-28 03:54:36,15.08842467,0.0001467,53.2149,243.2876,87.4507,272.6653,0.00042459,6.476e-05,0.0,0 STARLINK-3350,1 51105U 22005B   24088.16292102  .00006476  00000-0  42459-3 0  9996,2 51105  53.2149 243.2876 0001467  87.4507 272.6653 15.08842467121469,6917.873,95.437,540.753,538.723,0.0
51105.0,STARLINK-3350,PAYLOAD,2024-03-28 19:48:26,15.08869797,0.0001296,53.2136,240.3111,82.8706,277.2434,0.00071391,0.00011101,0.0,0 STARLINK-3350,1 51105U 22005B   24088.82530628  .00011101  00000-0  71391-3 0  9995,2 51105  53.2136 240.3111 0001296  82.8706 277.2434 15.08869797122672,6917.789,95.436,540.551,538.758,0.0
51105.0,STARLINK-3350,PAYLOAD,2024-03-29 10:06:55,15.08849604,0.0002481,53.2144,237.6351,85.6383,274.4893,-2.813e-05,-7.36e-06,0.0,0 STARLINK-3350,1 51105U 22005B   24089.42147014 -.00000736  00000-0 -28130-4 0  9993,2 51105  53.2144 237.6351 0002481  85.6383 274.4893 15.08849604122768,6917.851,95.437,541.432,538.0,0.0
51105.0,STARLINK-3350,PAYLOAD,2024-03-29 19:39:14,15.08837728,0.0001359,53.2149,235.8532,90.5209,269.5938,-0.00012935,-2.346e-05,0.0,0 STARLINK-3350,1 51105U 22005B   24089.81891291 -.00002346  00000-0 -12935-3 0  9993,2 51105  53.2149 235.8532 0001359  90.5209 269.5938 15.08837728122825,6917.887,95.438,540.692,538.812,0.0
51105.0,STARLINK-3350,PAYLOAD,2024-03-30 13:08:29,15.08828711,0.0001424,53.2158,232.58,94.9448,265.1707,-0.00017196,-3.023e-05,0.0,0 STARLINK-3350,1 51105U 22005B   24090.54756208 -.00003023  00000-0 -17196-3 0  9990,2 51105  53.2158 232.5800 0001424  94.9448 265.1707 15.08828711122933,6917.915,95.438,540.765,538.795,0.0
51105.0,STARLINK-3350,PAYLOAD,2024-03-30 16:19:15,15.08835901,0.0001352,53.2148,231.9873,79.743,280.3715,-0.00010097,-1.894e-05,0.0,0 STARLINK-3350,1 51105U 22005B   24090.68004051 -.00001894  00000-0 -10097-3 0  9994,2 51105  53.2148 231.9873 0001352  79.7430 280.3715 15.08835901121843,6917.893,95.438,540.693,538.823,0.0
51105.0,STARLINK-3350,PAYLOAD,2024-03-31 12:59:16,15.08838749,0.0001545,53.2156,228.1228,92.0388,268.0781,0.00033404,5.032e-05,0.0,0 STARLINK-3350,1 51105U 22005B   24091.54116658  .00005032  00000-0  33404-3 0  9990,2 51105  53.2156 228.1228 0001545  92.0388 268.0781 15.08838749123085,6917.884,95.438,540.818,538.68,0.0
51105.0,STARLINK-3350,PAYLOAD,2024-03-31 14:34:39,15.08841798,0.0001281,53.2163,227.826,87.3648,272.749,0.00037831,5.738e-05,0.0,0 STARLINK-3350,1 51105U 22005B   24091.60740574  .00005738  00000-0  37831-3 0  9998,2 51105  53.2163 227.8260 0001281  87.3648 272.7490 15.08841798121982,6917.875,95.437,540.626,538.854,0.0
51105.0,STARLINK-3350,PAYLOAD,2024-03-31 16:10:02,15.08846952,0.0001215,53.2165,227.5289,85.324,274.7891,0.00052195,8.03e-05,0.0,0 STARLINK-3350,1 51105U 22005B   24091.67364495  .00008030  00000-0  52195-3 0  9997,2 51105  53.2165 227.5289 0001215  85.3240 274.7891 15.08846952121990,6917.859,95.437,540.565,538.884,0.0
51105.0,STARLINK-3350,PAYLOAD,2024-04-01 12:50:03,15.08838537,0.0001336,53.2175,223.6652,96.5093,263.6051,7.7233e-05,9.41e-06,0.0,0 STARLINK-3350,1 51105U 22005B   24092.53476803  .00000941  00000-0  77233-4 0  9994,2 51105  53.2175 223.6652 0001336  96.5093 263.6051 15.08838537123230,6917.885,95.438,540.674,538.826,0.0
51105.0,STARLINK-3350,PAYLOAD,2024-04-01 14:25:27,15.08839013,0.0001365,53.2178,223.3685,98.9168,261.1979,7.4018e-05,8.9e-06,0.0,0 STARLINK-3350,1 51105U 22005B   24092.60100792  .00000890  00000-0  74018-4 0  9994,2 51105  53.2178 223.3685 0001365  98.9168 261.1979 15.08839013122137,6917.883,95.438,540.693,538.804,0.0
51105.0,STARLINK-3350,PAYLOAD,2024-04-02 12:40:50,15.08842861,0.0001321,53.2169,219.2029,95.4782,264.6361,7.8949e-05,9.69e-06,0.0,0 STARLINK-3350,1 51105U 22005B   24093.52836628  .00000969  00000-0  78949-4 0  9994,2 51105  53.2169 219.2029 0001321  95.4782 264.6361 15.08842861122272,6917.872,95.437,540.65,538.823,0.0
51105.0,STARLINK-3350,PAYLOAD,2024-04-02 15:51:36,15.08845822,0.0001249,53.2165,218.6079,94.5883,265.5252,0.00013951,1.933e-05,0.0,0 STARLINK-3350,1 51105U 22005B   24093.66084479  .00001933  00000-0  13951-3 0  9991,2 51105  53.2165 218.6079 0001249  94.5883 265.5252 15.08845822123402,6917.863,95.437,540.592,538.864,0.0
51105.0,STARLINK-3350,PAYLOAD,2024-04-03 14:07:00,15.08848987,0.0001348,53.2164,214.4428,88.828,271.2867,0.00022926,3.364e-05,0.0,0 STARLINK-3350,1 51105U 22005B   24094.58820212  .00003364  00000-0  22926-3 0  9998,2 51105  53.2164 214.4428 0001348  88.8280 271.2867 15.08848987122433,6917.853,95.437,540.65,538.785,0.0
51105.0,STARLINK-3350,PAYLOAD,2024-04-03 17:17:46,15.08854435,0.0001236,53.216,213.8483,88.4231,271.6903,0.00021319,3.108e-05,0.0,0 STARLINK-3350,1 51105U 22005B   24094.72067902  .00003108  00000-0  21319-3 0  9994,2 51105  53.2160 213.8483 0001236  88.4231 271.6903 15.08854435123566,6917.836,95.437,540.556,538.846,0.0
51105.0,STARLINK-3350,PAYLOAD,2024-04-04 01:14:42,15.0884364,0.0001178,53.2163,212.3626,90.1086,270.0041,7.2492e-05,8.66e-06,0.0,0 STARLINK-3350,1 51105U 22005B   24095.05188249  .00000866  00000-0  72492-4 0  9996,2 51105  53.2163 212.3626 0001178  90.1086 270.0041 15.08843640123613,6917.869,95.437,540.549,538.919,0.0
51105.0,STARLINK-3350,PAYLOAD,2024-04-04 13:57:48,15.08838073,0.0001231,53.2158,209.9823,98.811,261.3021,2.6837e-05,1.39e-06,0.0,0 STARLINK-3350,1 51105U 22005B   24095.58180661  .00000139  00000-0  26837-4 0  9999,2 51105  53.2158 209.9823 0001231  98.8110 261.3021 15.08838073123694,6917.886,95.438,540.603,538.9,0.0
